ORBCOMM FM20            
1 25416U 98046D   24317.59798252  .00003136  00000+0  11114-2 0  9991
2 25416  44.9922 126.3095 0001141 202.3382 157.7415 14.36271481373115
ORBCOMM FM16            
1 25417U 98046E   24317.61799545  .00003297  00000+0  11348-2 0  9998
2 25417  44.9918 120.3591 0004085 267.0450  92.9930 14.37620235373073
ORBCOMM FM15            
1 25418U 98046F   24316.84871628  .00003829  00000+0  13186-2 0  9999
2 25418  44.9953 128.5368 0003568 265.7411  94.3029 14.37298397372964
ORBCOMM FM14            
1 25419U 98046G   24317.47111278  .00003539  00000+0  12157-2 0  9993
2 25419  44.9941 124.3816 0002827 248.6385 111.4161 14.37574492373019
ORBCOMM FM13            
1 25420U 98046H   24317.20612131  .00003178  00000+0  11182-2 0  9996
2 25420  44.9956 131.7019 0004845 254.5029 105.5284 14.36589185372021
ORBCOMM FM21            
1 25475U 98053A   24317.45102021  .00002676  00000+0  95275-3 0  9991
2 25475  45.0074 215.2058 0000452 276.9734  83.1062 14.36415810366072
ORBCOMM FM22            
1 25476U 98053B   24317.41778270  .00003247  00000+0  11283-2 0  9994
2 25476  45.0068 211.7547 0001972 215.4482 144.6235 14.37182046366074
ORBCOMM FM23            
1 25477U 98053C   24317.05523437  .00003804  00000+0  13317-2 0  9997
2 25477  45.0076 219.4296 0001179 224.1146 135.9607 14.36498541366168
